NOAA 1 [-]              
1 04793U 70106A   22290.79504007 -.00000051  00000+0 -48681-4 0  9992
2 04793 101.5431 351.4608 0031899  84.5750  28.5944 12.54008161372929
NOAA 2 (ITOS-D) [-]     
1 06235U 72082A   22291.42573535 -.00000017  00000+0  18336-3 0  9997
2 06235 101.9681 274.4829 0003788 197.1155 318.3796 12.53152668287604
NOAA 3 [-]              
1 06920U 73086A   22290.82149264 -.00000023  00000+0  17390-3 0  9990
2 06920 102.2224 272.7762 0006785  64.2752 358.4323 12.40349292215964
NOAA 4 [-]              
1 07529U 74089A   22291.21246264 -.00000017  00000+0  18542-3 0  9995
2 07529 101.9291 271.2695 0008626 229.0220 141.4578 12.53161280192167
NOAA 5 [-]              
1 09057U 76077A   22290.83760894 -.00000014  00000+0  23913-3 0  9994
2 09057 102.1157 257.5854 0009575 275.6509 113.7231 12.37775235 88888
TIROS N [-]             
1 11060U 78096A   22290.73640174  .00000147  00000+0  91892-4 0  9999
2 11060  98.6215 341.1579 0011282 146.9650 213.2232 14.18425393488944
NOAA 6 [-]              
1 11416U 79057A   22290.66657656  .00000285  00000+0  11864-3 0  9990
2 11416  98.6640 301.7158 0009235 256.8912 103.1242 14.33816657259031
NOAA 7 [-]              
1 12553U 81059A   22290.85244931  .00000009  00000+0  27209-4 0  9992
2 12553  98.9855 336.7095 0012362 125.3124 234.9208 14.17348850135139
NOAA 8 [-]              
1 13923U 83022A   22290.97447222  .00000158  00000+0  80138-4 0  9992
2 13923  98.6979 281.1014 0014482 207.7736 152.2673 14.28843751 60168
NOAA 9 [-]              
1 15427U 84123A   22291.23122336  .00000138  00000+0  92932-4 0  9995
2 15427  99.0616 265.6287 0014817 173.7410 198.1265 14.16234231954223
NOAA 10 [-]             
1 16969U 86073A   22290.98350904  .00000161  00000+0  81928-4 0  9997
2 16969  98.5811 274.9517 0011501 318.0690 108.3007 14.28233157878586
NOAA 11 [-]             
1 19531U 88089A   22290.78704946  .00000073  00000+0  58288-4 0  9996
2 19531  98.4376 273.2167 0011029 180.3421 179.7748 14.15328127758128
NOAA 12 [-]             
1 21263U 91032A   22290.79156331  .00000116  00000+0  66546-4 0  9997
2 21263  98.5215 287.2222 0013348 346.3444  13.7373 14.26019427634168
NOAA 13 [-]             
1 22739U 93050A   22290.82081375  .00000124  00000+0  88803-4 0  9996
2 22739  98.5201 264.5999 0009566   0.2718 359.8459 14.12871612504339
NOAA 14 [-]             
1 23455U 94089A   22290.81263352  .00000045  00000+0  44728-4 0  9991
2 23455  98.4417 310.8656 0008997 339.4796  20.6015 14.14214036434008
NOAA 15 [B]             
1 25338U 98030A   22291.47723223  .00000131  00000+0  73090-4 0  9994
2 25338  98.6350 319.3529 0009397 302.0114  58.0152 14.26184038270800
NOAA 16 [-]             
1 26536U 00055A   22290.80034608  .00000083  00000+0  66409-4 0  9995
2 26536  98.6223 345.4000 0010724 170.6233 189.5142 14.13350971434630
NOAA 17 [-]             
1 27453U 02032A   22291.15725700  .00000178  00000+0  94372-4 0  9995
2 27453  98.6833 235.0428 0010722 276.4466  83.5492 14.25154063 56341
NOAA 18 [B]             
1 28654U 05018A   22291.43736903  .00000182  00000+0  12198-3 0  9994
2 28654  98.9382   1.7120 0013871 347.8677  12.2159 14.12792217897436
NOAA 19 [+]             
1 33591U 09005A   22291.52348833  .00000168  00000+0  11593-3 0  9993
2 33591  99.1365 328.1819 0013633 198.7792 161.2877 14.12624053705829
SUOMI NPP [+]           
1 37849U 11061A   22291.49108407  .00000096  00000+0  66398-4 0  9999
2 37849  98.7410 228.3737 0000997  80.7646  46.3296 14.19552630568645
NOAA 20 [+]             
1 43013U 17073A   22291.50073437  .00000088  00000+0  62492-4 0  9996
2 43013  98.7249 228.1661 0001636  77.7835 282.3524 14.19551614254689
